OBJECT_NAME,OBJECT_ID,EPOCH,MEAN_MOTION,ECCENTRICITY,INCLINATION,RA_OF_ASC_NODE,ARG_OF_PERICENTER,MEAN_ANOMALY,EPHEMERIS_TYPE,CLASSIFICATION_TYPE,NORAD_CAT_ID,ELEMENT_SET_NO,REV_AT_EPOCH,BSTAR,MEAN_MOTION_DOT,MEAN_MOTION_DDOT
SCD 1,1993-009B,2026-07-08T08:53:04.991424,14.46126934,.00418581,24.9699,76.7812,2.5054,159.8564,0,U,22490,999,76418,.43942056E-4,.346E-5,0
TECHSAT 1B (GO-32),1998-043D,2026-07-08T10:02:15.243936,14.24432447,.00020152,99.0079,182.7133,125.8911,234.2454,0,U,25397,999,45435,.37222759E-4,.39E-6,0
SCD 2,1998-060A,2026-07-08T10:17:46.758624,14.45533420,.00167305,24.9961,301.1645,348.4570,70.0412,0,U,25504,999,46340,.37738144E-4,.317E-5,0
DLR-TUBSAT,1999-029B,2026-07-08T05:39:53.106912,14.52432175,.00129965,98.6705,185.4334,287.6739,72.3036,0,U,25757,999,43630,.24594362E-4,.52E-6,0
TERRA,1999-068A,2026-07-08T12:50:40.555968,14.61120262,.00031087,97.9444,238.2338,135.9682,0.4383,0,U,25994,999,41272,.67178037E-4,.286E-5,0
MAROC-TUBSAT,2001-056D,2026-07-08T11:06:07.736256,13.70263291,.00206339,99.8094,6.7241,88.6947,301.3054,0,U,27004,999,22910,.33204133E-4,-.17E-6,0
AQUA,2002-022A,2026-07-08T13:09:00.823680,14.62190697,.00007479,98.4290,159.2593,100.0336,353.7043,0,U,27424,999,28639,.12538268E-3,.582E-5,0
SHIYAN-1 (SY-1),2004-012A,2026-07-08T04:30:02.286144,15.34327079,.00041382,97.8683,268.6278,308.8420,51.2452,0,U,28220,999,21431,.27258956E-3,.8975E-4,0
AURA,2004-026A,2026-07-08T13:18:16.164000,14.61361474,.00012388,98.3427,146.1860,90.6440,269.4903,0,U,28376,999,16933,.12652649E-3,.577E-5,0
IRS-P5 (CARTOSAT-1),2005-017A,2026-07-08T11:39:09.361728,14.91106245,.00017295,97.5304,211.5837,56.7511,303.3874,0,U,28649,999,14699,.12219331E-3,.1159E-4,0
SINAH 1,2005-043D,2026-07-08T13:56:32.860896,14.64172678,.0013913,98.2885,324.0319,204.6006,155.4534,0,U,28893,999,10365,.56249418E-4,.247E-5,0
RESURS-DK 1,2006-021A,2026-07-08T12:26:22.688160,15.13304301,.00067621,69.9328,284.3328,278.6147,81.4253,0,U,29228,999,10580,.73039411E-4,.1195E-4,0
ARIRANG-2 (KOMPSAT-2),2006-031A,2026-07-08T13:02:53.475936,14.64672297,.00148263,97.8319,12.9575,11.6882,73.3528,0,U,29268,999,6460,-.10164486E-4,-.99E-6,0
LAPAN-TUBSAT,2007-001A,2026-07-08T14:24:31.186944,14.85970589,.00133806,98.1353,189.3079,112.9811,247.2816,0,U,29709,999,5433,.535532E-6,-.53E-6,0
HAIYANG-1B,2007-010A,2026-07-08T09:36:44.268768,14.31032142,.00143789,98.3508,170.4242,134.5856,225.6503,0,U,31113,999,367,.41979131E-4,.69E-6,0
COSMO-SKYMED 1,2007-023A,2026-07-08T14:08:08.210688,14.97200232,.00010464,97.8846,21.6258,90.7210,269.4131,0,U,31598,999,3299,.14751042E-3,.1646E-4,0
TERRASAR-X,2007-026A,2026-07-07T11:29:59.023968,15.19153986,.0001878,97.4461,195.8972,86.9540,273.1909,0,U,31698,999,5630,.14624E-4,.24E-5,0
WORLDVIEW-1 (WV-1),2007-041A,2026-07-08T13:26:42.129312,15.24509684,.00009877,97.3891,309.0025,248.6767,111.4365,0,U,32060,999,4613,.17770703E-3,.4298E-4,0
YAOGAN-3,2007-055A,2026-07-08T14:31:34.749984,14.90863891,.00015712,97.8148,219.2713,75.5293,284.6099,0,U,32289,999,906,.94185687E-4,.872E-5,0
COSMO-SKYMED 2,2007-059A,2026-07-08T13:29:04.393824,14.82146651,.0001411,97.8891,12.8503,92.8374,267.3001,0,U,32376,999,517,.44899E-4,.305E-5,0
RADARSAT-2,2007-061A,2026-07-08T14:07:55.935840,14.29981930,.00013185,98.5785,196.2155,82.8192,277.3140,0,U,32382,999,96901,-.1464755E-5,-.47E-6,0
CARTOSAT-2A,2008-021A,2026-07-08T13:22:01.895232,14.79271864,.00129338,97.7619,237.5354,47.0365,313.1929,0,U,32783,999,98196,.10463912E-3,.729E-5,0
HUANJING 1A (HJ-1A),2008-041A,2026-07-08T14:35:24.656064,14.84039686,.00206747,97.6698,174.6192,69.5476,290.7956,0,U,33320,999,96158,.10446095E-3,.822E-5,0
HUANJING 1B (HJ-1B),2008-041B,2026-07-08T14:05:01.165056,14.83356432,.00377561,97.6532,177.7057,112.0716,248.4515,0,U,33321,999,96158,.91526936E-4,.707E-5,0
GEOEYE 1,2008-042A,2026-07-08T12:49:47.003520,14.64645809,.00044468,98.1329,263.2083,8.6084,351.5194,0,U,33331,999,95327,.6579754E-4,.302E-5,0
THEOS,2008-049A,2026-07-08T14:22:13.823040,14.20136066,.00011472,98.5556,246.1866,83.8189,276.3119,0,U,33396,999,92100,-.2872287E-5,-.48E-6,0
COSMO-SKYMED 3,2008-054A,2026-07-08T12:33:30.076128,15.07089569,.00152286,97.8269,48.4468,187.4585,172.6418,0,U,33412,999,96015,.12933382E-3,.1879E-4,0
YAOGAN-4,2008-061A,2026-07-08T06:47:03.954624,14.83242677,.00144393,97.9305,122.6377,8.3035,351.8415,0,U,33446,999,94879,.10074824E-3,.771E-5,0
GOSAT (IBUKI),2009-002A,2026-07-08T13:08:29.204736,14.67534231,.00011416,98.0909,300.3631,79.1377,280.9956,0,U,33492,999,93459,-.1618851E-5,-.57E-6,0
DEIMOS-1,2009-041A,2026-07-08T14:52:08.806368,14.75261583,.00026253,97.7431,345.9210,101.8543,258.2961,0,U,35681,999,91004,.11372616E-3,.722E-5,0
