SCD 1                   
1 22490U 93009B   26189.37019666  .00000346  00000+0  43942-4 0  9990
2 22490  24.9699  76.7812 0041858   2.5054 159.8564 14.46126934764185
TECHSAT 1B (GO-32)      
1 25397U 98043D   26189.41823199  .00000039  00000+0  37223-4 0  9995
2 25397  99.0079 182.7133 0002015 125.8911 234.2454 14.24432447454352
SCD 2                   
1 25504U 98060A   26189.42901341  .00000317  00000+0  37738-4 0  9991
2 25504  24.9961 301.1645 0016730 348.4570  70.0412 14.45533420463409
DLR-TUBSAT              
1 25757U 99029B   26189.23603133  .00000052  00000+0  24594-4 0  9996
2 25757  98.6705 185.4334 0012996 287.6739  72.3036 14.52432175436301
TERRA                   
1 25994U 99068A   26189.53519162  .00000286  00000+0  67178-4 0  9997
2 25994  97.9444 238.2338 0003108 135.9682   0.4383 14.61120262412722
MAROC-TUBSAT            
1 27004U 01056D   26189.46258954 -.00000017  00000+0  33204-4 0  9998
2 27004  99.8094   6.7241 0020633  88.6947 301.3054 13.70263291229104
AQUA                    
1 27424U 02022A   26189.54792620  .00000582  00000+0  12538-3 0  9992
2 27424  98.4290 159.2593 0000747 100.0336 353.7043 14.62190697286396
SHIYAN-1 (SY-1)         
1 28220U 04012A   26189.18752646  .00008975  00000+0  27259-3 0  9992
2 28220  97.8683 268.6278 0004138 308.8420  51.2452 15.34327079214318
AURA                    
1 28376U 04026A   26189.55435375  .00000577  00000+0  12653-3 0  9999
2 28376  98.3427 146.1860 0001238  90.6440 269.4903 14.61361474169336
IRS-P5 (CARTOSAT-1)     
1 28649U 05017A   26189.48552502  .00001159  00000+0  12219-3 0  9992
2 28649  97.5304 211.5837 0001729  56.7511 303.3874 14.91106245146990
SINAH 1                 
1 28893U 05043D   26189.58093589  .00000247  00000+0  56249-4 0  9997
2 28893  98.2885 324.0319 0013913 204.6006 155.4534 14.64172678103657
RESURS-DK 1             
1 29228U 06021A   26189.51831815  .00001195  00000+0  73039-4 0  9991
2 29228  69.9328 284.3328 0006762 278.6147  81.4253 15.13304301105806
ARIRANG-2 (KOMPSAT-2)   
1 29268U 06031A   26189.54367449 -.00000099  00000+0 -10164-4 0  9990
2 29268  97.8319  12.9575 0014826  11.6882  73.3528 14.64672297 64604
LAPAN-TUBSAT            
1 29709U 07001A   26189.60036096 -.00000053  00000+0  53553-6 0  9996
2 29709  98.1353 189.3079 0013380 112.9811 247.2816 14.85970589 54334
HAIYANG-1B              
1 31113U 07010A   26189.40051237  .00000069  00000+0  41979-4 0  9993
2 31113  98.3508 170.4242 0014378 134.5856 225.6503 14.31032142  3679
COSMO-SKYMED 1          
1 31598U 07023A   26189.58898392  .00001646  00000+0  14751-3 0  9993
2 31598  97.8846  21.6258 0001046  90.7210 269.4131 14.97200232 32993
TERRASAR-X              
1 31698U 07026A   26188.47915537  .00000240  00000+0  14624-4 0  9994
2 31698  97.4461 195.8972 0001878  86.9540 273.1909 15.19153986 56300
WORLDVIEW-1 (WV-1)      
1 32060U 07041A   26189.56020983  .00004298  00000+0  17771-3 0  9990
2 32060  97.3891 309.0025 0000987 248.6767 111.4365 15.24509684 46132
YAOGAN-3                
1 32289U 07055A   26189.60526331  .00000872  00000+0  94186-4 0  9991
2 32289  97.8148 219.2713 0001571  75.5293 284.6099 14.90863891  9065
COSMO-SKYMED 2          
1 32376U 07059A   26189.56185641  .00000305  00000+0  44899-4 0  9999
2 32376  97.8891  12.8503 0001411  92.8374 267.3001 14.82146651  5174
RADARSAT-2              
1 32382U 07061A   26189.58884185 -.00000047  00000+0 -14648-5 0  9995
2 32382  98.5785 196.2155 0001318  82.8192 277.3140 14.29981930969019
CARTOSAT-2A             
1 32783U 08021A   26189.55696638  .00000729  00000+0  10464-3 0  9993
2 32783  97.7619 237.5354 0012933  47.0365 313.1929 14.79271864981966
HUANJING 1A (HJ-1A)     
1 33320U 08041A   26189.60792426  .00000822  00000+0  10446-3 0  9995
2 33320  97.6698 174.6192 0020674  69.5476 290.7956 14.84039686961580
HUANJING 1B (HJ-1B)     
1 33321U 08041B   26189.58681904  .00000707  00000+0  91527-4 0  9993
2 33321  97.6532 177.7057 0037756 112.0716 248.4515 14.83356432961583
GEOEYE 1                
1 33331U 08042A   26189.53457180  .00000302  00000+0  65798-4 0  9999
2 33331  98.1329 263.2083 0004446   8.6084 351.5194 14.64645809953276
THEOS                   
1 33396U 08049A   26189.59877110 -.00000048  00000+0 -28723-5 0  9999
2 33396  98.5556 246.1866 0001147  83.8189 276.3119 14.20136066921007
COSMO-SKYMED 3          
1 33412U 08054A   26189.52326477  .00001879  00000+0  12933-3 0  9997
2 33412  97.8269  48.4468 0015228 187.4585 172.6418 15.07089569960156
YAOGAN-4                
1 33446U 08061A   26189.28268466  .00000771  00000+0  10075-3 0  9993
2 33446  97.9305 122.6377 0014439   8.3035 351.8415 14.83242677948791
GOSAT (IBUKI)           
1 33492U 09002A   26189.54756024 -.00000057  00000+0 -16189-5 0  9994
2 33492  98.0909 300.3631 0001141  79.1377 280.9956 14.67534231934590
DEIMOS-1                
1 35681U 09041A   26189.61954637  .00000722  00000+0  11373-3 0  9992
2 35681  97.7431 345.9210 0002625 101.8543 258.2961 14.75261583910046
